H1 CPF 01  gfz 2022 01 19 01  5191 tandemx   
H2 1003001  6202 36605    2022 01 19 00 59 42 2022 01 24 00 00 42   120 1 1  0 0 0
H9
10 0 59601  42462.000000  0     925272.827  -4755046.857   4888289.718
10 0 59601  42582.000000  0     827205.861  -5377695.564   4216066.836
10 0 59601  42702.000000  0     704623.859  -5904428.518   3469635.182
10 0 59601  42822.000000  0     561428.374  -6325617.313   2662115.735
10 0 59601  42942.000000  0     402035.880  -6633560.288   1807717.787
10 0 59601  43062.000000  0     231264.849  -6822631.951    921486.043
10 0 59601  43182.000000  0      54212.996  -6889394.555     19029.790
10 0 59601  43302.000000  0    -123873.224  -6832664.311   -883762.459
10 0 59601  43422.000000  0    -297731.672  -6653529.865  -1771012.473
10 0 59601  43542.000000  0    -462217.246  -6355325.545  -2627138.828
10 0 59601  43662.000000  0    -612431.192  -5943561.378  -3437136.155
10 0 59601  43782.000000  0    -743844.059  -5425810.398  -4186841.750
10 0 59601  43902.000000  0    -852408.820  -4811555.904  -4863182.707
10 0 59601  44022.000000  0    -934661.624  -4112005.345  -5454398.570
10 0 59601  44142.000000  0    -987808.109  -3339875.541  -5950237.869
10 0 59601  44262.000000  0   -1009793.464  -2509153.933  -6342125.882
10 0 59601  44382.000000  0    -999355.340  -1634840.720  -6623301.633
10 0 59601  44502.000000  0    -956058.990   -732677.954  -6788923.254
10 0 59601  44622.000000  0    -880314.338    181130.611  -6836142.797
10 0 59601  44742.000000  0    -773373.782   1090204.716  -6764148.820
10 0 59601  44862.000000  0    -637311.749   1978273.415  -6574178.597
10 0 59601  44982.000000  0    -474986.600   2829458.803  -6269499.348
10 0 59601  45102.000000  0    -289984.364   3628554.928  -5855359.619
10 0 59601  45222.000000  0     -86544.847   4361298.144  -5338908.131
10 0 59601  45342.000000  0     130528.093   5014622.638  -4729081.323
10 0 59601  45462.000000  0     355970.612   5576899.438  -4036460.300
10 0 59601  45582.000000  0     584176.069   6038152.641  -3273096.623
10 0 59601  45702.000000  0     809322.862   6390247.480  -2452309.814
10 0 59601  45822.000000  0    1025510.375   6627046.713  -1588458.990
10 0 59601  45942.000000  0    1226899.840   6744530.191   -696691.365
10 0 59601  46062.000000  0    1407856.869   6740873.606    207327.475
10 0 59601  46182.000000  0    1563091.670   6616482.736   1107695.822
10 0 59601  46302.000000  0    1687792.380   6373983.092   1988563.177
10 0 59601  46422.000000  0    1777749.469   6018166.106   2834417.306
10 0 59601  46542.000000  0    1829467.700   5555892.270   3630365.091
10 0 59601  46662.000000  0    1840262.304   4995953.039   4362402.026
10 0 59601  46782.000000  0    1808337.301   4348894.386   5017662.891
10 0 59601  46902.000000  0    1732843.714   3626806.245   5584648.718
10 0 59601  47022.000000  0    1613916.508   2843087.983   6053423.205
10 0 59601  47142.000000  0    1452691.044   2012193.711   6415782.667
10 0 59601  47262.000000  0    1251297.489   1149360.028   6665394.268
10 0 59601  47382.000000  0    1012833.919    270323.077   6797899.654
10 0 59601  47502.000000  0     741318.798   -608967.551   6810985.644
10 0 59601  47622.000000  0     441623.135  -1472637.538   6704423.831
10 0 59601  47742.000000  0     119382.952  -2305174.484   6480074.388
10 0 59601  47862.000000  0    -219106.560  -3091706.959   6141855.689
10 0 59601  47982.000000  0    -567012.315  -3818271.507   5695677.822
10 0 59601  48102.000000  0    -917097.869  -4472061.093   5149344.223
10 0 59601  48222.000000  0   -1261870.566  -5041655.493   4512424.184
10 0 59601  48342.000000  0   -1593739.797  -5517230.524   3796092.046
10 0 59601  48462.000000  0   -1905181.088  -5890737.704   3012933.322
10 0 59601  48582.000000  0   -2188903.088  -6156049.118   2176723.579
10 0 59601  48702.000000  0   -2438013.616  -6309065.528   1302183.697
10 0 59601  48822.000000  0   -2646179.376  -6347784.747    404715.070
10 0 59601  48942.000000  0   -2807776.034  -6272328.167   -499879.232
10 0 59601  49062.000000  0   -2918024.758  -6084924.376  -1395681.496
10 0 59601  49182.000000  0   -2973111.982  -5789850.059  -2266948.169
10 0 59601  49302.000000  0   -2970289.398  -5393330.046  -3098394.007
10 0 59601  49422.000000  0   -2907951.151  -4903398.859  -3875465.465
10 0 59601  49542.000000  0   -2785686.375  -4329728.143  -4584596.153
10 0 59601  49662.000000  0   -2604306.965  -3683426.390  -5213439.994
10 0 59601  49782.000000  0   -2365850.902  -2976815.935  -5751079.344
10 0 59601  49902.000000  0   -2073561.263  -2223192.111  -6188205.579
10 0 59601  50022.000000  0   -1731840.540  -1436569.532  -6517269.912
10 0 59601  50142.000000  0   -1346182.290   -631420.884  -6732601.970
10 0 59601  50262.000000  0    -923082.731    177586.459  -6830496.524
10 0 59601  50382.000000  0    -469932.624    975851.573  -6809269.870
10 0 59601  50502.000000  0       5109.434   1749096.730  -6669285.515
10 0 59601  50622.000000  0     493258.975   2483615.897  -6412949.091
10 0 59601  50742.000000  0     985264.260   3166513.693  -6044673.661
10 0 59601  50862.000000  0    1471577.975   3785930.242  -5570811.016
10 0 59601  50982.000000  0    1942538.239   4331247.441  -4999552.272
10 0 59601  51102.000000  0    2388557.961   4793275.308  -4340798.286
10 0 59601  51222.000000  0    2800318.327   5164414.501  -3605998.089
10 0 59601  51342.000000  0    3168962.310   5438790.017  -2807958.373
10 0 59601  51462.000000  0    3486285.292   5612354.236  -1960625.846
10 0 59601  51582.000000  0    3744917.264   5682954.815  -1078844.918
10 0 59601  51702.000000  0    3938491.536   5650365.990   -178095.140
10 0 59601  51822.000000  0    4061795.557   5516281.157    725786.247
10 0 59601  51942.000000  0    4110900.038   5284266.016   1616890.495
10 0 59601  52062.000000  0    4083262.402   4959674.035   2479524.573
10 0 59601  52182.000000  0    3977803.595   4549528.458   3298497.033
10 0 59601  52302.000000  0    3794952.194   4062367.247   4059393.551
10 0 59601  52422.000000  0    3536659.402   3508061.265   4748833.398
10 0 59601  52542.000000  0    3206382.817   2897610.114   5354708.538
10 0 59601  52662.000000  0    2809036.190   2242916.638   5866395.066
10 0 59601  52782.000000  0    2350913.909   1556549.769   6274933.260
10 0 59601  52902.000000  0    1839588.107    851499.365   6573179.365
10 0 59601  53022.000000  0    1283780.047    140928.697   6755923.542
10 0 59601  53142.000000  0     693209.395   -562069.949   6819975.789
10 0 59601  53262.000000  0      78423.664  -1244716.611   6764219.283
10 0 59601  53382.000000  0    -549390.419  -1894775.852   6589628.173
10 0 59601  53502.000000  0   -1178610.301  -2500776.033   6299250.759
10 0 59601  53622.000000  0   -1797390.953  -3052211.589   5898158.085
10 0 59601  53742.000000  0   -2393885.540  -3539726.370   5393361.952
10 0 59601  53862.000000  0   -2956473.663  -3955276.794   4793700.499
10 0 59601  53982.000000  0   -3473992.090  -4292270.018   4109689.099
10 0 59601  54102.000000  0   -3935959.910  -4545673.351   3353338.908
10 0 59601  54222.000000  0   -4332793.660  -4712093.588   2537947.574
10 0 59601  54342.000000  0   -4656009.434  -4789824.850   1677865.035
10 0 59601  54462.000000  0   -4898406.619  -4778862.041    788236.563
10 0 59601  54582.000000  0   -5054227.722  -4680879.356   -115270.468
10 0 59601  54702.000000  0   -5119290.650  -4499174.671  -1016750.828
10 0 59601  54822.000000  0   -5091089.344  -4238580.790  -1900351.186
10 0 59601  54942.000000  0   -4968859.385  -3905344.910  -2750557.890
10 0 59601  55062.000000  0   -4753607.424  -3506980.790  -3552474.717
10 0 59601  55182.000000  0   -4448105.584  -3052098.795  -4292085.663
10 0 59601  55302.000000  0   -4056851.257  -2550217.773  -4956498.686
10 0 59601  55422.000000  0   -3585993.285  -2011563.325  -5534165.296
10 0 59601  55542.000000  0   -3043227.617  -1446857.879  -6015073.010
10 0 59601  55662.000000  0   -2437665.221   -867106.707  -6390908.678
10 0 59601  55782.000000  0   -1779674.274   -283384.620  -6655191.022
10 0 59601  55902.000000  0   -1080700.461    293372.291  -6803370.284
10 0 59601  56022.000000  0    -353070.568    852566.058  -6832897.272
10 0 59601  56142.000000  0     390220.224   1384126.743  -6743262.485
10 0 59601  56262.000000  0    1135733.653   1878688.406  -6536004.916
10 0 59601  56382.000000  0    1869826.604   2327751.486  -6214690.189
10 0 59601  56502.000000  0    2578895.971   2723827.606  -5784855.617
10 0 59601  56622.000000  0    3249627.573   3060564.668  -5253923.395
10 0 59601  56742.000000  0    3869244.130   3332850.416  -4631084.143
10 0 59601  56862.000000  0    4425751.205   3536894.022  -3927149.502
10 0 59601  56982.000000  0    4908174.664   3670281.946  -3154373.674
10 0 59601  57102.000000  0    5306783.088   3732006.794  -2326246.246
10 0 59601  57222.000000  0    5613291.112   3722469.289  -1457260.263
10 0 59601  57342.000000  0    5821038.559   3643450.983   -562657.575
10 0 59601  57462.000000  0    5925139.633   3498058.538    341842.119
10 0 59601  57582.000000  0    5922599.067   3290640.694   1240324.102
10 0 59601  57702.000000  0    5812390.194   3026679.165   2116967.320
10 0 59601  57822.000000  0    5595493.189   2712657.231   2956331.478
10 0 59601  57942.000000  0    5274892.962   2355908.677   3743637.801
10 0 59601  58062.000000  0    4855534.946   1964450.448   4465035.578
10 0 59601  58182.000000  0    4344241.838   1546804.474   5107847.242
10 0 59601  58302.000000  0    3749597.046   1111813.277   5660791.549
10 0 59601  58422.000000  0    3081790.363    668452.968   6114180.248
10 0 59601  58542.000000  0    2352434.768    225648.375   6460080.328
10 0 59601  58662.000000  0    1574360.529   -207904.575   6692446.121
10 0 59601  58782.000000  0     761386.879   -623908.445   6807220.769
10 0 59601  58902.000000  0     -71925.995  -1014622.517   6802402.689
99
